[{"OBJECT_NAME":"IRIDIUM 151","OBJECT_ID":"2017-083E","EPOCH":"2026-03-09T21:03:19.137312","MEAN_MOTION":14.34219156,"ECCENTRICITY":0.00022172,"INCLINATION":86.4026,"RA_OF_ASC_NODE":3.558,"ARG_OF_PERICENTER":86.5929,"MEAN_ANOMALY":273.552,"EPHEMERIS_TYPE":0,"CLASSIFICATION_TYPE":"U","NORAD_CAT_ID":43074,"ELEMENT_SET_NO":999,"REV_AT_EPOCH":42990,"BSTAR":0.00015053451,"MEAN_MOTION_DOT":4.41e-6,"MEAN_MOTION_DDOT":0},{"OBJECT_NAME":"UOSAT 4 (UO-15)","OBJECT_ID":"1990-005C","EPOCH":"2026-03-09T17:53:17.725056","MEAN_MOTION":14.31699597,"ECCENTRICITY":0.00087115,"INCLINATION":98.7972,"RA_OF_ASC_NODE":124.1198,"ARG_OF_PERICENTER":284.0147,"MEAN_ANOMALY":187.9515,"EPHEMERIS_TYPE":0,"CLASSIFICATION_TYPE":"U","NORAD_CAT_ID":20438,"ELEMENT_SET_NO":999,"REV_AT_EPOCH":88599,"BSTAR":4.6915112e-5,"MEAN_MOTION_DOT":7.9e-7,"MEAN_MOTION_DDOT":0}]
